OBJECT_NAME,OBJECT_ID,EPOCH,MEAN_MOTION,ECCENTRICITY,INCLINATION,RA_OF_ASC_NODE,ARG_OF_PERICENTER,MEAN_ANOMALY,EPHEMERIS_TYPE,CLASSIFICATION_TYPE,NORAD_CAT_ID,ELEMENT_SET_NO,REV_AT_EPOCH,BSTAR,MEAN_MOTION_DOT,MEAN_MOTION_DDOT
SITRO-AIS 5 (KATYS),2023-091L,2024-07-07T22:01:26.532480,15.08870882,.00185,97.6106,241.9258,55.4622,304.8349,0,U,57176,999,5662,.45719E-3,.7169E-4,0
SITRO-AIS 6 (CHIRKIN),2023-091AC,2024-07-07T21:38:54.279168,15.08929906,.0018178,97.6104,241.9362,55.0270,305.2662,0,U,57192,999,5662,.53005E-3,.8335E-4,0
SITRO-AIS 8 (ANOKHIN),2023-091AD,2024-07-07T22:21:37.925280,15.09277152,.0018186,97.6107,242.0424,56.6222,303.6744,0,U,57193,999,5663,.50887E-3,.8076E-4,0
SITRO-AIS 7 (FARTUSHNIY),2023-091AE,2024-07-07T21:47:00.793248,15.08883430,.0018077,97.6101,241.9219,55.6679,304.6257,0,U,57194,999,5662,.47481E-3,.7449E-4,0
SITRO-AIS 10 (BURDAEV),2023-091AK,2024-07-08T00:13:37.185024,15.11119141,.0012969,97.6124,243.0831,46.8522,313.3790,0,U,57199,999,5670,.52502E-3,.8753E-4,0
SITRO-AIS 9 (SHCHUKIN),2023-091AM,2024-07-08T00:11:30.879456,15.11101327,.0012932,97.6120,243.0605,46.8351,313.3957,0,U,57201,999,5670,.52387E-3,.8729E-4,0
SITRO-AIS 12 (SMIRENNIY),2023-091AQ,2024-07-07T21:38:22.128864,15.11288614,.0012566,97.6124,243.0938,40.9768,319.2403,0,U,57204,999,5669,.55491E-3,.9298E-4,0
SITRO-AIS 11 (SHEFFER),2023-091AU,2024-07-08T02:02:07.187424,15.11380419,.0012504,97.6126,243.3009,41.1541,319.0629,0,U,57208,999,5672,.54271E-3,.9115E-4,0
SITRO-AIS 29,2024-039B,2024-07-07T21:57:43.655040,15.28776136,.0019629,97.3925,151.7615,137.4374,222.8391,0,U,59052,999,1976,.75295E-3,.21141E-3,0
SITRO-AIS 30,2024-039C,2024-07-07T21:58:07.529952,15.28714509,.0019701,97.3924,151.7569,138.1007,222.1745,0,U,59053,999,1975,.71665E-3,.20078E-3,0
SITRO-AIS 31,2024-039D,2024-07-08T00:54:28.319328,15.28859062,.0019611,97.3925,151.8987,137.5718,222.7042,0,U,59054,999,1979,.71102E-3,.20007E-3,0
SITRO-AIS 33,2024-039E,2024-07-07T21:31:52.373280,15.28993876,.0019297,97.3929,151.7872,138.5173,221.7536,0,U,59055,999,1976,.70568E-3,.19935E-3,0
SITRO-AIS 35,2024-039F,2024-07-07T21:26:23.660160,15.29020959,.0019116,97.3927,151.7896,138.6436,221.6255,0,U,59056,999,1976,.72985E-3,.20637E-3,0
SITRO-AIS 32,2024-039G,2024-07-08T03:54:35.378208,15.28889126,.0019199,97.3930,152.0407,138.1016,222.1697,0,U,59057,999,1980,.71102E-3,.20021E-3,0
SITRO-AIS 34,2024-039H,2024-07-08T03:48:49.290912,15.28960659,.0019329,97.3930,152.0484,137.9490,222.3237,0,U,59058,999,1980,.66734E-3,.18826E-3,0
SITRO-AIS 36,2024-039J,2024-07-07T22:53:12.477696,15.29091401,.0018905,97.3927,151.8616,138.6501,221.6174,0,U,59059,999,1977,.68005E-3,.1926E-3,0
SITRO-AIS 49,2024-039K,2024-07-07T22:53:52.524960,15.29044141,.0018934,97.3928,151.8611,138.1756,222.0935,0,U,59060,999,1977,.69591E-3,.19684E-3,0
SITRO-AIS 50,2024-039L,2024-07-08T01:47:22.684704,15.29215279,.0018822,97.3926,152.0037,137.9781,222.2907,0,U,59061,999,1979,.6829E-3,.19414E-3,0
SITRO-AIS 51,2024-039M,2024-07-08T01:46:59.251296,15.29204068,.0018859,97.3926,152.0047,137.8143,222.4552,0,U,59062,999,1979,.67847E-3,.19281E-3,0
SITRO-AIS 52,2024-039N,2024-07-08T00:02:38.696064,15.29303697,.0018728,97.3927,151.9500,137.9711,222.2970,0,U,59063,999,1978,.69014E-3,.19674E-3,0
SITRO-AIS 25,2024-039R,2024-07-08T03:02:09.018528,14.83142439,.0168663,95.4029,111.5482,271.0415,87.1485,0,U,59066,999,1921,.40694E-3,.4231E-4,0
SITRO-AIS 26,2024-039S,2024-07-08T04:39:13.371264,14.83109337,.0168595,95.4028,111.5932,270.8395,87.3512,0,U,59067,999,1922,.36143E-3,.3749E-4,0
SITRO-AIS 27,2024-039T,2024-07-07T21:54:04.426272,14.83280441,.01682,95.4031,111.4244,271.6295,86.5666,0,U,59068,999,1918,.38124E-3,.3971E-4,0
SITRO-AIS 28,2024-039U,2024-07-07T21:49:34.459968,14.83322783,.0168025,95.4031,111.4285,271.6182,86.5798,0,U,59071,999,1918,.37407E-3,.3898E-4,0
