SITRO-AIS 5 (KATYS)     
1 57176U 23091L   24189.91766820  .00007169  00000+0  45719-3 0  9995
2 57176  97.6106 241.9258 0018500  55.4622 304.8349 15.08870882 56623
SITRO-AIS 6 (CHIRKIN)   
1 57192U 23091AC  24189.90201712  .00008335  00000+0  53005-3 0  9999
2 57192  97.6104 241.9362 0018178  55.0270 305.2662 15.08929906 56626
SITRO-AIS 8 (ANOKHIN)   
1 57193U 23091AD  24189.93168895  .00008076  00000+0  50887-3 0  9994
2 57193  97.6107 242.0424 0018186  56.6222 303.6744 15.09277152 56638
SITRO-AIS 7 (FARTUSHNIY)
1 57194U 23091AE  24189.90764807  .00007449  00000+0  47481-3 0  9996
2 57194  97.6101 241.9219 0018077  55.6679 304.6257 15.08883430 56627
SITRO-AIS 10 (BURDAEV)  
1 57199U 23091AK  24190.00945816  .00008753  00000+0  52502-3 0  9994
2 57199  97.6124 243.0831 0012969  46.8522 313.3790 15.11119141 56706
SITRO-AIS 9 (SHCHUKIN)  
1 57201U 23091AM  24190.00799629  .00008729  00000+0  52387-3 0  9991
2 57201  97.6120 243.0605 0012932  46.8351 313.3957 15.11101327 56707
SITRO-AIS 12 (SMIRENNIY)
1 57204U 23091AQ  24189.90164501  .00009298  00000+0  55491-3 0  9997
2 57204  97.6124 243.0938 0012566  40.9768 319.2403 15.11288614 56697
SITRO-AIS 11 (SHEFFER)  
1 57208U 23091AU  24190.08480541  .00009115  00000+0  54271-3 0  9990
2 57208  97.6126 243.3009 0012504  41.1541 319.0629 15.11380419 56727
SITRO-AIS 29            
1 59052U 24039B   24189.91508860  .00021141  00000+0  75295-3 0  9999
2 59052  97.3925 151.7615 0019629 137.4374 222.8391 15.28776136 19766
SITRO-AIS 30            
1 59053U 24039C   24189.91536493  .00020078  00000+0  71665-3 0  9998
2 59053  97.3924 151.7569 0019701 138.1007 222.1745 15.28714509 19757
SITRO-AIS 31            
1 59054U 24039D   24190.03782777  .00020007  00000+0  71102-3 0  9990
2 59054  97.3925 151.8987 0019611 137.5718 222.7042 15.28859062 19790
SITRO-AIS 33            
1 59055U 24039E   24189.89713395  .00019935  00000+0  70568-3 0  9996
2 59055  97.3929 151.7872 0019297 138.5173 221.7536 15.28993876 19769
SITRO-AIS 35            
1 59056U 24039F   24189.89332940  .00020637  00000+0  72985-3 0  9996
2 59056  97.3927 151.7896 0019116 138.6436 221.6255 15.29020959 19768
SITRO-AIS 32            
1 59057U 24039G   24190.16290947  .00020021  00000+0  71102-3 0  9996
2 59057  97.3930 152.0407 0019199 138.1016 222.1697 15.28889126 19804
SITRO-AIS 34            
1 59058U 24039H   24190.15890383  .00018826  00000+0  66734-3 0  9991
2 59058  97.3930 152.0484 0019329 137.9490 222.3237 15.28960659 19801
SITRO-AIS 36            
1 59059U 24039J   24189.95361664  .00019260  00000+0  68005-3 0  9999
2 59059  97.3927 151.8616 0018905 138.6501 221.6174 15.29091401 19771
SITRO-AIS 49            
1 59060U 24039K   24189.95408015  .00019684  00000+0  69591-3 0  9994
2 59060  97.3928 151.8611 0018934 138.1756 222.0935 15.29044141 19777
SITRO-AIS 50            
1 59061U 24039L   24190.07456811  .00019414  00000+0  68290-3 0  9993
2 59061  97.3926 152.0037 0018822 137.9781 222.2907 15.29215279 19797
SITRO-AIS 51            
1 59062U 24039M   24190.07429689  .00019281  00000+0  67847-3 0  9996
2 59062  97.3926 152.0047 0018859 137.8143 222.4552 15.29204068 19792
SITRO-AIS 52            
1 59063U 24039N   24190.00183676  .00019674  00000+0  69014-3 0  9997
2 59063  97.3927 151.9500 0018728 137.9711 222.2970 15.29303697 19782
SITRO-AIS 25            
1 59066U 24039R   24190.12649327  .00004231  00000+0  40694-3 0  9999
2 59066  95.4029 111.5482 0168663 271.0415  87.1485 14.83142439 19214
SITRO-AIS 26            
1 59067U 24039S   24190.19390476  .00003749  00000+0  36143-3 0  9992
2 59067  95.4028 111.5932 0168595 270.8395  87.3512 14.83109337 19226
SITRO-AIS 27            
1 59068U 24039T   24189.91255123  .00003971  00000+0  38124-3 0  9998
2 59068  95.4031 111.4244 0168200 271.6295  86.5666 14.83280441 19189
SITRO-AIS 28            
1 59071U 24039U   24189.90942662  .00003898  00000+0  37407-3 0  9993
2 59071  95.4031 111.4285 0168025 271.6182  86.5798 14.83322783 19180
